{
    "links": {
        "self": "http://www.neowsapp.com/rest/v1/neo/3791290?api_key=iIulBulltgU6a56xZRHN4H3l9WmuAYTsLGpBGhQ2"
    },
    "id": "3791290",
    "neo_reference_id": "3791290",
    "name": "(2017 XK2)",
    "designation": "2017 XK2",
    "nasa_jpl_url": "http://ssd.jpl.nasa.gov/sbdb.cgi?sstr=3791290",
    "absolute_magnitude_h": 25.8,
    "estimated_diameter": {
        "kilometers": {
            "estimated_diameter_min": 0.0183888672,
            "estimated_diameter_max": 0.0411187571
        },
        "meters": {
            "estimated_diameter_min": 18.388867207,
            "estimated_diameter_max": 41.1187571041
        },
        "miles": {
            "estimated_diameter_min": 0.0114263088,
            "estimated_diameter_max": 0.0255500032
        },
        "feet": {
            "estimated_diameter_min": 60.3309310875,
            "estimated_diameter_max": 134.9040630575
        }
    },
    "is_potentially_hazardous_asteroid": false,
    "close_approach_data": [
        {
            "close_approach_date": "2017-11-24",
            "close_approach_date_full": "2017-Nov-24 19:34",
            "epoch_date_close_approach": 1511552040000,
            "relative_velocity": {
                "kilometers_per_second": "9.9553972687",
                "kilometers_per_hour": "35839.4301674715",
                "miles_per_hour": "22269.2281504492"
            },
            "miss_distance": {
                "astronomical": "0.0392706754",
                "lunar": "15.2762927306",
                "kilometers": "5874809.393301398",
                "miles": "3650437.2839713724"
            },
            "orbiting_body": "Earth"
        }
    ],
    "orbital_data": {
        "orbit_id": "2",
        "orbit_determination_date": "2017-12-26 06:24:00",
        "first_observation_date": "2017-12-09",
        "last_observation_date": "2017-12-13",
        "data_arc_in_days": 4,
        "observations_used": 16,
        "orbit_uncertainty": "9",
        "minimum_orbit_intersection": ".0133073",
        "jupiter_tisserand_invariant": "4.258",
        "epoch_osculation": "2458097.5",
        "eccentricity": ".4345050961825739",
        "semi_major_axis": "1.595312902448396",
        "inclination": "1.983016893139214",
        "ascending_node_longitude": "167.9343406258131",
        "orbital_period": "735.9820855600517",
        "perihelion_distance": ".9021413163287548",
        "perihelion_argument": "207.362062728605",
        "aphelion_distance": "2.288484488568038",
        "perihelion_time": "2458046.624416549663",
        "mean_anomaly": "24.88540197032677",
        "mean_motion": ".4891423406400646",
        "equinox": "J2000",
        "orbit_class": {
            "orbit_class_type": "APO",
            "orbit_class_description": "Near-Earth asteroid orbits which cross the Earth’s orbit similar to that of 1862 Apollo",
            "orbit_class_range": "a (semi-major axis) > 1.0 AU; q (perihelion) < 1.017 AU"
        }
    },
    "is_sentry_object": false
}